PROMETHEUS 2-1          
1 41854U 16067G   23266.99439321  .00014658  00000+0  96477-3 0  9990
2 41854  98.0792  61.4677 0015725 242.6807 117.2819 15.07559486375362
PROMETHEUS 2-3          
1 41855U 16067H   23266.98857880  .00014616  00000+0  96312-3 0  9996
2 41855  98.0718  61.2179 0013312 252.3046 107.6728 15.07546525375361
INS-1B                  
1 41954U 17008G   23267.13030173  .00481690  00000+0  17524-2 0  9995
2 41954  97.1781 330.2512 0003328 259.2374 100.8523 15.87323017368386
DIDO-2                  
1 42000U 17008BE  23266.68488577  .00031215  00000+0  67493-3 0  9997
2 42000  97.1911 321.4280 0005912  51.8001 308.3779 15.44419464367115
PEASSS                  
1 42015U 17008BV  23266.73313383  .00128725  00000+0  12285-2 0  9992
2 42015  97.1926 331.3289 0001193  19.5507 340.5799 15.66348736368203
UCLSAT                  
1 42765U 17036A   23267.09465982  .00150554  00000+0  13700-2 0  9996
2 42765  97.1288 306.2763 0005355 100.0647 260.1219 15.67453167348690
AALTO-1                 
1 42775U 17036L   23266.54601492  .00027371  00000+0  69408-3 0  9991
2 42775  97.1457 293.9737 0011182 107.7155 252.5312 15.39600323347634
URSA MAIOR              
1 42776U 17036M   23266.52790173  .00031582  00000+0  73186-3 0  9992
2 42776  97.1461 295.6360 0010679 104.1191 256.1245 15.42308185347722
DIAMOND RED             
1 42783U 17036U   23266.33971873  .00043634  00000+0  87185-3 0  9992
2 42783  97.1425 299.2535 0008991 105.7988 254.4254 15.46644087347931
PEGASUS                 
1 42784U 17036V   23266.66766973  .00084295  00000+0  11175-2 0  9995
2 42784  97.1371 303.4967 0007142  96.9806 263.2262 15.57958727348250
DIAMOND GREEN           
1 42785U 17036W   23266.31844618  .00049695  00000+0  93189-3 0  9992
2 42785  97.1412 299.6214 0008552 106.6689 253.5502 15.48457094348027
DIAMOND BLUE            
1 42786U 17036X   23267.09357087  .00047116  00000+0  91274-3 0  9997
2 42786  97.1421 300.2463 0008707 102.0948 258.1279 15.47528783348051
SUCHAI                  
1 42788U 17036Z   23266.87441673  .00590111  14026-3  17846-2 0  9996
2 42788  97.1240 309.9591 0002802 171.5038 188.6285 15.92137326348773
SKCUBE                  
1 42789U 17036AA  23267.08574776  .00169698  00000+0  14410-2 0  9991
2 42789  97.1296 307.0736 0005543 100.0141 260.1747 15.69097075348524
ROBUSTA 1B              
1 42792U 17036AD  23267.10228235  .00334468  00000+0  16236-2 0  9991
2 42792  97.1255 309.2337 0003249 121.9505 238.2081 15.81573177348681
CICERO 6                
1 42793U 17036AE  23266.57344725  .00038332  00000+0  83858-3 0  9991
2 42793  97.1412 299.2912 0008361 105.9471 254.2700 15.44011517348059
CORVUS BC2              
1 42846U 17042X   23266.51817522  .00003156  00000+0  29125-3 0  9994
2 42846  97.3821 101.9602 0007364 237.6196 122.4313 14.95280908337419
CORVUS BC1              
1 42847U 17042Y   23266.50324297  .00004470  00000+0  40951-3 0  9996
2 42847  97.3815 102.3109 0006996 234.1224 125.9349 14.95375207337429
MIRATA                  
1 43015U 17073C   23266.67170944  .00019053  00000+0  11320-2 0  9994
2 43015  97.6181 151.6668 0204680  85.6243 276.8333 14.95369406316197
MAKERSAT 0              
1 43016U 17073D   23267.14882361  .00011340  00000+0  73434-3 0  9997
2 43016  97.6154 149.5299 0221877  95.7210 266.9351 14.90191344316039
CORVUS BC3              
1 43118U 18004H   23267.18964971  .00037408  00000+0  83459-3 0  9998
2 43118  97.3173 341.6936 0007425 141.8812 218.2962 15.43441909317285
CICERO 7                
1 43143U 18004AJ  23266.76017135  .00140217  00000+0  10850-2 0  9997
2 43143  97.3169 356.8732 0002123 158.0665 202.0690 15.71447423318149
GOMX-4B                 
1 43196U 18015E   23266.38338417  .00028999  00000+0  72606-3 0  9994
2 43196  97.5900  60.5098 0012845 211.3733 148.6748 15.39962597314049
GOMX-4A                 
1 43197U 18015F   23267.13161336  .00031706  00000+0  69432-3 0  9996
2 43197  97.5889  63.9360 0012162 201.5627 158.5110 15.43983320314348
CUBEBEL-1 (BSUSAT-1)    
1 43666U 18083E   23267.06309115  .00063048  00000+0  12922-2 0  9998
2 43666  97.3722 299.7040 0010044 120.7093 239.5147 15.45801471272434
CICERO 10               
1 43690U 18088A   23266.32301311  .00034635  00000+0  84064-3 0  9995
2 43690  85.0328   5.9776 0009577 216.4828 143.5773 15.40826471270583
PROXIMA I               
1 43694U 18088E   23266.27008367  .00046056  00000+0  97642-3 0  9994
2 43694  85.0258   1.2430 0011608 181.4276 178.6947 15.44813393270890
PROXIMA II              
1 43696U 18088G   23266.55268033  .00043435  00000+0  92598-3 0  9998
2 43696  85.0264   1.1183 0011775 180.1016 180.0238 15.44655038270920
SIRION PATHFINDER-2     
1 43759U 18099B   23267.17735090  .00005252  00000+0  43184-3 0  9993
2 43759  97.5615 326.0270 0015434 137.4978 222.7444 14.99462868262450
CORVUS BC4              
1 43767U 18099K   23266.70942283  .00005806  00000+0  48353-3 0  9992
2 43767  97.5570 323.3775 0012468 142.6137 217.5956 14.98956821262285
MOVE-II                 
1 43780U 18099Y   23267.11960381  .00015719  00000+0  10839-2 0  9993
2 43780  97.5623 329.1422 0008933 168.7683 191.3745 15.05868151262618
SPACEBEE-7              
1 43816U 18099BL  23266.72859168  .00011547  00000+0  83458-3 0  9992
2 43816  97.5880 329.6931 0012581 122.2973 237.9474 15.04147595262116
SPACEBEE-5              
1 43817U 18099BM  23266.18073561  .00065204  00000+0  25426-2 0  9997
2 43817  97.5817 338.9656 0003930 122.0212 238.1408 15.25684026262596
SPACEBEE-6              
1 43818U 18099BN  23267.15040063  .00018705  00000+0  11915-2 0  9999
2 43818  97.5797 332.6444 0012479 133.6554 226.5712 15.08733791262476
SHIELDS 1               
1 43850U 18104B   23266.82146200  .00010743  00000+0  36585-3 0  9990
2 43850  85.0225 103.4448 0012559   1.2968 358.8309 15.30179039265182
STF-1                   
1 43852U 18104D   23266.55721322  .00055208  00000+0  94605-3 0  9998
2 43852  85.0168  99.5722 0008236 354.9245   5.1927 15.50963452265600
ZACUBE-2                
1 43907U 18111AH  23267.20554995  .00046169  00000+0  91713-3 0  9993
2 43907  97.1197 144.7766 0011569 201.4085 158.6683 15.46772960264428
LUME 1                  
1 43908U 18111AJ  23266.58005811  .00063967  00000+0  95078-3 0  9995
2 43908  97.1189 148.8302 0009856 181.3300 178.7931 15.54909070264638
MOVE-IIB                
1 44398U 19038N   23267.07809566  .00138653  00000+0  20129-2 0  9991
2 44398  97.6654 255.5900 0003940 298.1521  61.9334 15.55321663233952
SONATE                  
1 44400U 19038Q   23266.49886295  .00016353  00000+0  68374-3 0  9991
2 44400  97.6941 246.3692 0018560 335.7551  24.2810 15.23525340233196
LUCKY-7                 
1 44406U 19038W   23266.44122474  .00022480  00000+0  84145-3 0  9996
2 44406  97.6894 248.0274 0016217 329.8648  30.1656 15.27193476233304
BEESAT 9                
1 44412U 19038AC  23265.95974995  .00043219  00000+0  12481-2 0  9997
2 44412  97.6821 250.2222 0011338 330.5186  29.5416 15.35476885233138
JAISAT-1                
1 44419U 19038F   23266.93438590  .00039876  00000+0  11415-2 0  9999
2 44419  97.6807 252.3568 0010379 322.8370  37.2153 15.35781661233661
DUCHIFAT-3              
1 44854U 19089C   23267.18879185  .00013003  00000+0  83105-3 0  9995
2 44854  36.9598 218.8444 0005910  39.9794 320.1385 15.08041442207778
EYESAT-NANO             
1 44877U 19092E   23266.81052871  .00154965  00000+0  21004-2 0  9990
2 44877  97.4540 100.3781 0003525 128.7052 231.4519 15.57133087209366
M2 PATHFINDER           
1 45727U 20037E   23267.02946455  .00004947  00000+0  46088-3 0  9994
2 45727  97.7640  80.5999 0010707 298.3069  61.7070 14.94682693176009
NETSAT-4                
1 46504U 20068U   23266.43294078  .00008804  00000+0  56052-3 0  9991
2 46504  97.7689 213.2974 0010371 183.7954 176.3197 15.08974052163717
NETSAT-3                
1 46505U 20068V   23266.81122771  .00010053  00000+0  64360-3 0  9994
2 46505  97.7665 213.4459 0009314 192.0247 168.0760 15.08738371163777
NETSAT-1                
1 46506U 20068W   23266.41497783  .00007945  00000+0  51677-3 0  9992
2 46506  97.7680 212.8803 0007470 202.8695 157.2201 15.08239563163701
NETSAT-2                
1 46507U 20068X   23266.36924427  .00008894  00000+0  56765-3 0  9994
2 46507  97.7680 212.9505 0006410 205.4446 154.6467 15.08903899163657
SAI-1 NANOCONNECT-2     
1 47701U 21015C   23266.20225120  .00143465  00000+0  15117-2 0  9990
2 47701  97.3740 352.5993 0006859 225.1155 134.9547 15.63770019143387
WILDTRACKCUBE-SIMBA     
1 47941U 21022K   23267.17106975  .00011564  00000+0  64016-3 0  9994
2 47941  97.4835 162.4743 0018463   1.6310 358.4979 15.13851248137973
BEESAT-6                
1 47957U 21022AB  23267.18012090  .00032623  00000+0  13610-2 0  9998
2 47957  97.4808 165.4734 0014776 356.4965   3.6166 15.23504797137986
SMOG-1                  
1 47964U 21022AJ  23266.27362551  .00034632  00000+0  13652-2 0  9993
2 47964  97.4848 166.9332 0012419 345.2430  14.8444 15.25427225137001
BCCSAT-1                
1 48041U 21022AK  23266.92637462  .00028479  00000+0  12253-2 0  9996
2 48041  97.4845 166.1227 0010517 346.4842  13.6111 15.22538826136988
BEESAT-5                
1 48083U 21022AM  23265.99243124  .00039435  00000+0  15514-2 0  9993
2 48083  97.4690 164.6181 0013903 359.2506   0.8708 15.25446577136978
BEESAT-7                
1 48084U 21022AN  23266.67987324  .00036349  00000+0  14826-2 0  9993
2 48084  97.4790 165.1788 0014118 356.5060   3.6076 15.24250987136643
BEESAT-8                
1 48085U 21022AP  23266.24620803  .00015117  00000+0  73459-3 0  9991
2 48085  97.4864 163.6384 0016517 359.6905   0.4316 15.18412622137055
LEDSAT                  
1 49069U 21073D   23267.19078302  .00012879  00000+0  66790-3 0  9998
2 49069  97.4739 336.4650 0024231 135.4453 224.8734 15.16030030115896
